{
  "type": "FeatureCollection",
  "features": [
    {
      "type": "Feature",
      "properties": {
        "norad_id": 24876,
        "name": "GPS BIIR-2  (PRN 13)",
        "group": "gps-ops",
        "lat": 11.73332482932031,
        "lon": -81.98314986515213,
        "alt_km": 20261.425958899086,
        "timestamp": "2025-12-06T11:28:11.321630+00:00",
        "meta_object_name": "GPS BIIR-2  (PRN 13)",
        "meta_object_id": "1997-035A",
        "meta_epoch": "2025-12-05T18:03:38.663712",
        "meta_mean_motion": 2.00563458,
        "meta_eccentricity": 0.00967066,
        "meta_inclination": 55.8919,
        "meta_ra_of_asc_node": 106.1422,
        "meta_arg_of_pericenter": 57.0175,
        "meta_mean_anomaly": 303.8711,
        "meta_ephemeris_type": 0,
        "meta_classification_type": "U",
        "meta_norad_cat_id": 24876,
        "meta_element_set_no": 999,
        "meta_rev_at_epoch": 20807,
        "meta_bstar": 0,
        "meta_mean_motion_dot": 4e-08,
        "meta_mean_motion_ddot": 0,
        "tle_line1": "1 24876U 97035A   25339.75253083  .00000004  00000+0  00000+0 0  9998",
        "tle_line2": "2 24876  55.8919 106.1422 0096706  57.0175 303.8711  2.00563458208078"
      },
      "geometry": {
        "type": "Point",
        "coordinates": [
          -81.98314986515213,
          11.73332482932031
        ]
      }
    },
    {
      "type": "Feature",
      "properties": {
        "norad_id": 26360,
        "name": "GPS BIIR-4  (PRN 20)",
        "group": "gps-ops",
        "lat": -52.86583135827387,
        "lon": -85.483200423022,
        "alt_km": 20087.81361777205,
        "timestamp": "2025-12-06T11:28:11.321659+00:00",
        "meta_object_name": "GPS BIIR-4  (PRN 20)",
        "meta_object_id": "2000-025A",
        "meta_epoch": "2025-12-05T20:58:35.104224",
        "meta_mean_motion": 2.00568129,
        "meta_eccentricity": 0.00388196,
        "meta_inclination": 55.0411,
        "meta_ra_of_asc_node": 27.1157,
        "meta_arg_of_pericenter": 241.3366,
        "meta_mean_anomaly": 299.1128,
        "meta_ephemeris_type": 0,
        "meta_classification_type": "U",
        "meta_norad_cat_id": 26360,
        "meta_element_set_no": 999,
        "meta_rev_at_epoch": 18739,
        "meta_bstar": 0,
        "meta_mean_motion_dot": -7.6e-07,
        "meta_mean_motion_ddot": 0,
        "tle_line1": "1 26360U 00025A   25339.87401741 -.00000076  00000+0  00000+0 0  9990",
        "tle_line2": "2 26360  55.0411  27.1157 0038819 241.3366 299.1128  2.00568129187395"
      },
      "geometry": {
        "type": "Point",
        "coordinates": [
          -85.483200423022,
          -52.86583135827387
        ]
      }
    },
    {
      "type": "Feature",
      "properties": {
        "norad_id": 26407,
        "name": "GPS BIIR-5  (PRN 22)",
        "group": "gps-ops",
        "lat": 54.35626717870611,
        "lon": -35.734570641016745,
        "alt_km": 20478.18098032933,
        "timestamp": "2025-12-06T11:28:11.321676+00:00",
        "meta_object_name": "GPS BIIR-5  (PRN 22)",
        "meta_object_id": "2000-040A",
        "meta_epoch": "2025-12-05T20:58:54.723936",
        "meta_mean_motion": 2.00567754,
        "meta_eccentricity": 0.01263842,
        "meta_inclination": 54.8925,
        "meta_ra_of_asc_node": 222.8421,
        "meta_arg_of_pericenter": 301.6819,
        "meta_mean_anomaly": 78.5111,
        "meta_ephemeris_type": 0,
        "meta_classification_type": "U",
        "meta_norad_cat_id": 26407,
        "meta_element_set_no": 999,
        "meta_rev_at_epoch": 18607,
        "meta_bstar": 0,
        "meta_mean_motion_dot": 4.8e-07,
        "meta_mean_motion_ddot": 0,
        "tle_line1": "1 26407U 00040A   25339.87424449  .00000048  00000+0  00000+0 0  9997",
        "tle_line2": "2 26407  54.8925 222.8421 0126384 301.6819  78.5111  2.00567754186078"
      },
      "geometry": {
        "type": "Point",
        "coordinates": [
          -35.734570641016745,
          54.35626717870611
        ]
      }
    },
    {
      "type": "Feature",
      "properties": {
        "norad_id": 27663,
        "name": "GPS BIIR-8  (PRN 16)",
        "group": "gps-ops",
        "lat": -40.057044217170144,
        "lon": 78.80970833847844,
        "alt_km": 20577.55766299908,
        "timestamp": "2025-12-06T11:28:11.321690+00:00",
        "meta_object_name": "GPS BIIR-8  (PRN 16)",
        "meta_object_id": "2003-005A",
        "meta_epoch": "2025-12-05T09:55:38.654112",
        "meta_mean_motion": 2.005712,
        "meta_eccentricity": 0.01471646,
        "meta_inclination": 54.9252,
        "meta_ra_of_asc_node": 222.6697,
        "meta_arg_of_pericenter": 51.6986,
        "meta_mean_anomaly": 131.7082,
        "meta_ephemeris_type": 0,
        "meta_classification_type": "U",
        "meta_norad_cat_id": 27663,
        "meta_element_set_no": 999,
        "meta_rev_at_epoch": 16742,
        "meta_bstar": 0,
        "meta_mean_motion_dot": 5.3e-07,
        "meta_mean_motion_ddot": 0,
        "tle_line1": "1 27663U 03005A   25339.41364183  .00000053  00000+0  00000+0 0  9990",
        "tle_line2": "2 27663  54.9252 222.6697 0147164  51.6986 131.7082  2.00571200167424"
      },
      "geometry": {
        "type": "Point",
        "coordinates": [
          78.80970833847844,
          -40.057044217170144
        ]
      }
    },
    {
      "type": "Feature",
      "properties": {
        "norad_id": 28190,
        "name": "GPS BIIR-11 (PRN 19)",
        "group": "gps-ops",
        "lat": 24.200113385182437,
        "lon": -58.21387007061927,
        "alt_km": 20389.925064544277,
        "timestamp": "2025-12-06T11:28:11.321702+00:00",
        "meta_object_name": "GPS BIIR-11 (PRN 19)",
        "meta_object_id": "2004-009A",
        "meta_epoch": "2025-12-04T10:34:11.811072",
        "meta_mean_motion": 2.00560931,
        "meta_eccentricity": 0.0108199,
        "meta_inclination": 54.9938,
        "meta_ra_of_asc_node": 283.5535,
        "meta_arg_of_pericenter": 167.4954,
        "meta_mean_anomaly": 192.2151,
        "meta_ephemeris_type": 0,
        "meta_classification_type": "U",
        "meta_norad_cat_id": 28190,
        "meta_element_set_no": 999,
        "meta_rev_at_epoch": 15903,
        "meta_bstar": 0,
        "meta_mean_motion_dot": -4.2e-07,
        "meta_mean_motion_ddot": 0,
        "tle_line1": "1 28190U 04009A   25338.44041448 -.00000042  00000+0  00000+0 0  9998",
        "tle_line2": "2 28190  54.9938 283.5535 0108199 167.4954 192.2151  2.00560931159030"
      },
      "geometry": {
        "type": "Point",
        "coordinates": [
          -58.21387007061927,
          24.200113385182437
        ]
      }
    },
    {
      "type": "Feature",
      "properties": {
        "norad_id": 28474,
        "name": "GPS BIIR-13 (PRN 02)",
        "group": "gps-ops",
        "lat": 55.177149361911525,
        "lon": 66.16013949349475,
        "alt_km": 20535.599476256586,
        "timestamp": "2025-12-06T11:28:11.321714+00:00",
        "meta_object_name": "GPS BIIR-13 (PRN 02)",
        "meta_object_id": "2004-045A",
        "meta_epoch": "2025-12-05T20:20:11.876352",
        "meta_mean_motion": 2.0056901,
        "meta_eccentricity": 0.01706228,
        "meta_inclination": 55.2441,
        "meta_ra_of_asc_node": 332.6831,
        "meta_arg_of_pericenter": 308.9503,
        "meta_mean_anomaly": 46.5475,
        "meta_ephemeris_type": 0,
        "meta_classification_type": "U",
        "meta_norad_cat_id": 28474,
        "meta_element_set_no": 999,
        "meta_rev_at_epoch": 15454,
        "meta_bstar": 0,
        "meta_mean_motion_dot": -7.7e-07,
        "meta_mean_motion_ddot": 0,
        "tle_line1": "1 28474U 04045A   25339.84735968 -.00000077  00000+0  00000+0 0  9993",
        "tle_line2": "2 28474  55.2441 332.6831 0170622 308.9503  46.5475  2.00569010154543"
      },
      "geometry": {
        "type": "Point",
        "coordinates": [
          66.16013949349475,
          55.177149361911525
        ]
      }
    },
    {
      "type": "Feature",
      "properties": {
        "norad_id": 28874,
        "name": "GPS BIIRM-1 (PRN 17)",
        "group": "gps-ops",
        "lat": 39.30189819202351,
        "lon": -44.179997778817324,
        "alt_km": 20335.264597661673,
        "timestamp": "2025-12-06T11:28:11.321752+00:00",
        "meta_object_name": "GPS BIIRM-1 (PRN 17)",
        "meta_object_id": "2005-038A",
        "meta_epoch": "2025-12-05T22:06:01.734624",
        "meta_mean_motion": 2.00548596,
        "meta_eccentricity": 0.01327155,
        "meta_inclination": 55.0381,
        "meta_ra_of_asc_node": 280.9756,
        "meta_arg_of_pericenter": 293.5052,
        "meta_mean_anomaly": 73.5327,
        "meta_ephemeris_type": 0,
        "meta_classification_type": "U",
        "meta_norad_cat_id": 28874,
        "meta_element_set_no": 999,
        "meta_rev_at_epoch": 14796,
        "meta_bstar": 0,
        "meta_mean_motion_dot": -3.6e-07,
        "meta_mean_motion_ddot": 0,
        "tle_line1": "1 28874U 05038A   25339.92085341 -.00000036  00000+0  00000+0 0  9997",
        "tle_line2": "2 28874  55.0381 280.9756 0132715 293.5052  73.5327  2.00548596147968"
      },
      "geometry": {
        "type": "Point",
        "coordinates": [
          -44.179997778817324,
          39.30189819202351
        ]
      }
    }
  ]
}